NORAD_CAT_ID,OBJECT_NAME,OBJECT_TYPE,EPOCH,MEAN_MOTION,ECCENTRICITY,INCLINATION,RA_OF_ASC_NODE,ARG_OF_PERICENTER,MEAN_ANOMALY,BSTAR,MEAN_MOTION_DOT,MEAN_MOTION_DDOT,TLE_LINE0,TLE_LINE1,TLE_LINE2,SEMIMAJOR_AXIS,PERIOD,APOGEE,PERIGEE,DECAYED
52604.0,STARLINK-4013,PAYLOAD,2023-11-23 13:55:13,15.08840851,0.000128,53.2187,77.0502,97.4317,262.6821,-5.698e-06,-3.79e-06,0.0,0 STARLINK-4013,1 52604U 22052G   23327.58001697 -.00000379  00000-0 -56980-5 0  9995,2 52604  53.2187  77.0502 0001280  97.4317 262.6821 15.08840851 84489,6917.878,95.438,540.628,538.857,0.0
52604.0,STARLINK-4013,PAYLOAD,2023-11-24 12:10:38,15.0884434,0.0001506,53.2195,72.8899,89.9135,270.203,-0.00018489,-3.23e-05,0.0,0 STARLINK-4013,1 52604U 22052G   23328.50738485 -.00003230  00000-0 -18489-3 0  9999,2 52604  53.2195  72.8899 0001506  89.9135 270.2030 15.08844340 84995,6917.867,95.437,540.774,538.69,0.0
52604.0,STARLINK-4013,PAYLOAD,2023-11-24 18:32:09,15.08849596,0.0001479,53.2186,71.6945,88.9326,271.1836,-0.00010532,-1.964e-05,0.0,0 STARLINK-4013,1 52604U 22052G   23328.77233691 -.00001964  00000-0 -10532-3 0  9990,2 52604  53.2186  71.6945 0001479  88.9326 271.1836 15.08849596 85032,6917.851,95.437,540.739,538.693,0.0
52604.0,STARLINK-4013,PAYLOAD,2023-11-25 12:01:24,15.08843281,0.0001457,53.2185,68.4275,70.9394,289.1756,0.00018343,2.633e-05,0.0,0 STARLINK-4013,1 52604U 22052G   23329.50097669  .00002633  00000-0  18343-3 0  9995,2 52604  53.2185  68.4275 0001457  70.9394 289.1756 15.08843281 84778,6917.87,95.437,540.743,538.727,0.0
52604.0,STARLINK-4013,PAYLOAD,2023-11-26 11:52:13,15.08802701,0.0001348,53.2175,63.966,79.7618,280.3526,-0.00025878,-4.4e-05,0.0,0 STARLINK-4013,1 52604U 22052G   23330.49459962 -.00004400  00000-0 -25878-3 0  9990,2 52604  53.2175  63.9660 0001348  79.7618 280.3526 15.08802701 85298,6917.994,95.44,540.792,538.927,0.0
52604.0,STARLINK-4013,PAYLOAD,2023-11-26 16:38:23,15.08806047,0.0001357,53.2178,63.072,100.6162,259.4983,-0.00022484,-3.861e-05,0.0,0 STARLINK-4013,1 52604U 22052G   23330.69332439 -.00003861  00000-0 -22484-3 0  9991,2 52604  53.2178  63.0720 0001357 100.6162 259.4983 15.08806047 84950,6917.984,95.44,540.788,538.91,0.0
52604.0,STARLINK-4013,PAYLOAD,2023-11-27 11:43:00,15.08831345,0.0001403,53.2177,59.5053,84.7704,275.3448,-0.00020729,-3.585e-05,0.0,0 STARLINK-4013,1 52604U 22052G   23331.48819892 -.00003585  00000-0 -20729-3 0  9995,2 52604  53.2177  59.5053 0001403  84.7704 275.3448 15.08831345 85441,6917.907,95.438,540.742,538.801,0.0
52604.0,STARLINK-4013,PAYLOAD,2023-11-28 11:33:45,15.08831911,0.0001804,53.2184,55.0448,126.1051,234.0108,0.00055497,8.553e-05,0.0,0 STARLINK-4013,1 52604U 22052G   23332.48177337  .00008553  00000-0  55497-3 0  9995,2 52604  53.2184  55.0448 0001804 126.1051 234.0108 15.08831911 85599,6917.905,95.438,541.018,538.522,0.0
52604.0,STARLINK-4013,PAYLOAD,2023-11-28 13:09:08,15.08832874,0.0001482,53.2185,54.7469,80.9524,279.1636,0.00057774,8.917e-05,0.0,0 STARLINK-4013,1 52604U 22052G   23332.54801600  .00008917  00000-0  57774-3 0  9993,2 52604  53.2185  54.7469 0001482  80.9524 279.1636 15.08832874 85239,6917.902,95.438,540.792,538.742,0.0
52604.0,STARLINK-4013,PAYLOAD,2023-11-29 11:24:33,15.08837802,0.0001821,53.2195,50.5859,71.1639,288.9551,0.00022427,3.283e-05,0.0,0 STARLINK-4013,1 52604U 22052G   23333.47539266  .00003283  00000-0  22427-3 0  9990,2 52604  53.2195  50.5859 0001821  71.1639 288.9551 15.08837802 85749,6917.887,95.438,541.012,538.492,0.0
52604.0,STARLINK-4013,PAYLOAD,2023-11-29 12:59:56,15.08841219,0.0001904,53.2203,50.2893,72.4778,287.6422,0.00025745,3.812e-05,0.0,0 STARLINK-4013,1 52604U 22052G   23333.54163054  .00003812  00000-0  25745-3 0  9990,2 52604  53.2203  50.2893 0001904  72.4778 287.6422 15.08841219 85384,6917.877,95.437,541.059,538.424,0.0
52604.0,STARLINK-4013,PAYLOAD,2023-12-01 11:06:07,15.08846523,0.0001792,53.2205,41.6675,93.9348,266.1849,-8.1824e-06,-4.18e-06,0.0,0 STARLINK-4013,1 52604U 22052G   23335.46258938 -.00000418  00000-0 -81824-5 0  9992,2 52604  53.2205  41.6675 0001792  93.9348 266.1849 15.08846523 86046,6917.86,95.437,540.965,538.486,0.0
52604.0,STARLINK-4013,PAYLOAD,2023-12-02 10:56:52,15.0887847,0.0001821,53.2191,37.2084,112.839,247.2795,0.00060687,9.394e-05,0.0,0 STARLINK-4013,1 52604U 22052G   23336.45616535  .00009394  00000-0  60687-3 0  9995,2 52604  53.2191  37.2084 0001821 112.8390 247.2795 15.08878470 86198,6917.763,95.435,540.888,538.368,0.0
52604.0,STARLINK-4013,PAYLOAD,2023-12-03 10:47:42,15.08815523,0.0001442,53.2185,32.7448,91.9731,268.1426,-0.00044344,-7.334e-05,0.0,0 STARLINK-4013,1 52604U 22052G   23337.44979601 -.00007334  00000-0 -44344-3 0  9997,2 52604  53.2185  32.7448 0001442  91.9731 268.1426 15.08815523 86340,6917.955,95.439,540.818,538.823,0.0
52604.0,STARLINK-4013,PAYLOAD,2023-12-04 02:41:33,15.08824613,0.000139,53.2183,29.7683,84.06,276.0551,-0.00045041,-7.446e-05,0.0,0 STARLINK-4013,1 52604U 22052G   23338.11219628 -.00007446  00000-0 -45041-3 0  9997,2 52604  53.2183  29.7683 0001390  84.0600 276.0551 15.08824613 86443,6917.927,95.439,540.754,538.831,0.0
52604.0,STARLINK-4013,PAYLOAD,2023-12-04 10:38:29,15.08837198,0.0001562,53.2186,28.2859,85.4149,274.7022,-0.00012793,-2.323e-05,0.0,0 STARLINK-4013,1 52604U 22052G   23338.44339448 -.00002323  00000-0 -12793-3 0  9993,2 52604  53.2186  28.2859 0001562  85.4149 274.7022 15.08837198 86494,6917.889,95.438,540.835,538.673,0.0
52604.0,STARLINK-4013,PAYLOAD,2023-12-05 10:29:16,15.08857373,0.00017,53.2182,23.8255,69.3044,290.813,0.0008102,0.00012636,0.0,0 STARLINK-4013,1 52604U 22052G   23339.43699724  .00012636  00000-0  81020-3 0  9994,2 52604  53.2182  23.8255 0001700  69.3044 290.8130 15.08857373 86643,6917.827,95.436,540.868,538.516,0.0
52604.0,STARLINK-4013,PAYLOAD,2023-12-06 08:44:40,15.08847628,0.0002225,53.2187,19.6609,52.4459,307.6735,7.6715e-05,9.33e-06,0.0,0 STARLINK-4013,1 52604U 22052G   23340.36435665  .00000933  00000-0  76715-4 0  9993,2 52604  53.2187  19.6609 0002225  52.4459 307.6735 15.08847628 86785,6917.857,95.437,541.261,538.183,0.0
52604.0,STARLINK-4013,PAYLOAD,2023-12-07 11:46:13,15.08841805,0.0002077,53.219,14.6018,64.0698,296.0508,-5.4221e-05,-1.151e-05,0.0,0 STARLINK-4013,1 52604U 22052G   23341.49043873 -.00001151  00000-0 -54221-4 0  9997,2 52604  53.2190  14.6018 0002077  64.0698 296.0508 15.08841805 86956,6917.875,95.437,541.177,538.303,0.0
52604.0,STARLINK-4013,PAYLOAD,2023-12-08 11:37:00,15.0884143,0.0002038,53.2191,10.1422,66.6671,293.4535,0.00013275,1.825e-05,0.0,0 STARLINK-4013,1 52604U 22052G   23342.48403933  .00001825  00000-0  13275-3 0  9993,2 52604  53.2191  10.1422 0002038  66.6671 293.4535 15.08841430 86734,6917.876,95.437,541.151,538.331,0.0
52604.0,STARLINK-4013,PAYLOAD,2023-12-09 11:27:47,15.0884271,0.000178,53.2191,5.6819,77.855,282.2642,0.00010153,1.328e-05,0.0,0 STARLINK-4013,1 52604U 22052G   23343.47763774  .00001328  00000-0  10153-3 0  9995,2 52604  53.2191   5.6819 0001780  77.8550 282.2642 15.08842710 87251,6917.872,95.437,540.968,538.506,0.0
52604.0,STARLINK-4013,PAYLOAD,2023-12-10 11:18:35,15.08837577,0.0001841,53.2198,1.2216,88.5779,271.5424,1.4117e-05,-6.3e-07,0.0,0 STARLINK-4013,1 52604U 22052G   23344.47124329 -.00000063  00000-0  14117-4 0  9994,2 52604  53.2198   1.2216 0001841  88.5779 271.5424 15.08837577 87402,6917.888,95.438,541.026,538.479,0.0
52604.0,STARLINK-4013,PAYLOAD,2023-12-11 07:58:35,15.08841868,0.0001755,53.2193,357.3563,98.5481,261.571,5.9066e-05,6.52e-06,0.0,0 STARLINK-4013,1 52604U 22052G   23345.33235830  .00000652  00000-0  59066-4 0  9995,2 52604  53.2193 357.3563 0001755  98.5481 261.5710 15.08841868 87160,6917.875,95.437,540.954,538.526,0.0
52604.0,STARLINK-4013,PAYLOAD,2023-12-12 07:49:23,15.08838085,0.0001711,53.2191,352.8971,99.2852,260.8334,6.344e-05,7.22e-06,0.0,0 STARLINK-4013,1 52604U 22052G   23346.32596269  .00000722  00000-0  63440-4 0  9990,2 52604  53.2191 352.8971 0001711  99.2852 260.8334 15.08838085 87681,6917.886,95.438,540.935,538.568,0.0
52604.0,STARLINK-4013,PAYLOAD,2023-12-13 07:40:10,15.08837812,0.0001657,53.2192,348.4396,94.6984,265.4197,2.6781e-05,1.38e-06,0.0,0 STARLINK-4013,1 52604U 22052G   23347.31956627  .00000138  00000-0  26781-4 0  9996,2 52604  53.2192 348.4396 0001657  94.6984 265.4197 15.08837812 87469,6917.887,95.438,540.898,538.606,0.0
52604.0,STARLINK-4013,PAYLOAD,2023-12-14 04:20:11,15.08838009,0.0001618,53.2191,344.574,92.3448,267.773,5.7741e-05,6.31e-06,0.0,0 STARLINK-4013,1 52604U 22052G   23348.18068717  .00000631  00000-0  57741-4 0  9994,2 52604  53.2191 344.5740 0001618  92.3448 267.7730 15.08838009 87967,6917.886,95.438,540.871,538.632,0.0
52604.0,STARLINK-4013,PAYLOAD,2023-12-14 07:30:57,15.0884116,0.0001624,53.219,343.9789,85.6752,274.4426,8.1525e-05,1.01e-05,0.0,0 STARLINK-4013,1 52604U 22052G   23348.31316539  .00001010  00000-0  81525-4 0  9996,2 52604  53.2190 343.9789 0001624  85.6752 274.4426 15.08841160 87613,6917.877,95.437,540.865,538.618,0.0
52604.0,STARLINK-4013,PAYLOAD,2023-12-15 07:21:44,15.08846621,0.0001846,53.2195,339.5206,73.6888,286.4307,0.00014279,1.986e-05,0.0,0 STARLINK-4013,1 52604U 22052G   23349.30676216  .00001986  00000-0  14279-3 0  9990,2 52604  53.2195 339.5206 0001846  73.6888 286.4307 15.08846621 88132,6917.86,95.437,541.002,538.448,0.0
52604.0,STARLINK-4013,PAYLOAD,2023-12-16 04:01:46,15.08836599,0.0001825,53.22,335.6526,80.4696,279.6503,-4.5512e-06,-3.61e-06,0.0,0 STARLINK-4013,1 52604U 22052G   23350.16789403 -.00000361  00000-0 -45512-5 0  9993,2 52604  53.2200 335.6526 0001825  80.4696 279.6503 15.08836599 88260,6917.891,95.438,541.018,538.493,0.0
52604.0,STARLINK-4013,PAYLOAD,2023-12-16 05:37:09,15.08837956,0.0001781,53.2206,335.354,84.0589,276.0606,8.0717e-06,-1.6e-06,0.0,0 STARLINK-4013,1 52604U 22052G   23350.23413295 -.00000160  00000-0  80717-5 0  9996,2 52604  53.2206 335.3540 0001781  84.0589 276.0606 15.08837956 87904,6917.887,95.438,540.984,538.52,0.0
